[{"OBJECT_NAME":"FALCONSAT-10","OBJECT_ID":"2023-174AM","EPOCH":"2026-03-09T16:51:34.085376","MEAN_MOTION":15.26670596,"ECCENTRICITY":0.00089318,"INCLINATION":97.3865,"RA_OF_ASC_NODE":145.7938,"ARG_OF_PERICENTER":169.5942,"MEAN_ANOMALY":190.5483,"EPHEMERIS_TYPE":0,"CLASSIFICATION_TYPE":"U","NORAD_CAT_ID":58291,"ELEMENT_SET_NO":999,"REV_AT_EPOCH":12958,"BSTAR":0.00025968794,"MEAN_MOTION_DOT":6.748e-5,"MEAN_MOTION_DDOT":0},{"OBJECT_NAME":"STARLINK-31679","OBJECT_ID":"2024-073J","EPOCH":"2026-03-09T01:46:27.278976","MEAN_MOTION":15.27579085,"ECCENTRICITY":0.0001461,"INCLINATION":43.0014,"RA_OF_ASC_NODE":310.9222,"ARG_OF_PERICENTER":270.1269,"MEAN_ANOMALY":89.9415,"EPHEMERIS_TYPE":0,"CLASSIFICATION_TYPE":"U","NORAD_CAT_ID":59519,"ELEMENT_SET_NO":999,"REV_AT_EPOCH":10620,"BSTAR":-7.579484e-6,"MEAN_MOTION_DOT":-4.71e-6,"MEAN_MOTION_DDOT":0}]
