FALCONSAT-10            
1 58291U 23174AM  26068.70247784  .00006748  00000+0  25969-3 0  9991
2 58291  97.3865 145.7938 0008932 169.5942 190.5483 15.26670596129582
STARLINK-31679          
1 59519U 24073J   26068.07392684 -.00000471  00000+0 -75795-5 0  9997
2 59519  43.0014 310.9222 0001461 270.1269  89.9415 15.27579085106205
